CUTE-1 (CO-55)          
1 27844U 03031E   23121.76462686  .00000432  00000+0  21204-3 0  9996
2 27844  98.6794 129.7002 0008568 258.7906 101.2309 14.22745895 29166
CUBESAT XI-IV (CO-57)   
1 27848U 03031J   23121.54876070  .00000354  00000+0  17915-3 0  9999
2 27848  98.6831 129.9206 0008449 276.6006  83.4210 14.22260584 28874
CUBESAT XI-V            
1 28895U 05043F   23121.30457620  .00002038  00000+0  38446-3 0  9990
2 28895  98.1456 253.7476 0015688 216.1501 143.8643 14.65490522933940
CUTE-1.7+APD II (CO-65) 
1 32785U 08021C   23121.85849253  .00004601  00000+0  45953-3 0  9998
2 32785  97.7022  88.8279 0010323 255.3477 104.6598 14.91940417813980
AAUSAT-II               
1 32788U 08021F   23121.16207644  .00010485  00000+0  78376-3 0  9999
2 32788  97.5574 101.6674 0008840 145.6545 214.5253 15.02932755816042
DELFI-C3 (DO-64)        
1 32789U 08021G   23121.66446624  .00045008  00000+0  14619-2 0  9996
2 32789  97.3080 143.6242 0003678 277.3220  82.7603 15.31782971820355
SEEDS II (CO-66)        
1 32791U 08021J   23121.86699732  .00006375  00000+0  57022-3 0  9991
2 32791  97.6523  94.1042 0011322 196.9346 163.1499 14.96160372814817
SWISSCUBE               
1 35932U 09051B   23121.58243469  .00001133  00000+0  25918-3 0  9992
2 35932  98.5279 350.8241 0008117 141.9360 218.2412 14.57619792722460
BEESAT-1                
1 35933U 09051C   23121.61017640  .00000972  00000+0  22431-3 0  9994
2 35933  98.5208 352.2259 0006151 151.1162 209.0377 14.57541449722503
ITUPSAT1                
1 35935U 09051E   23121.68882334  .00000900  00000+0  21265-3 0  9998
2 35935  98.5310 352.2684 0008310 158.4796 201.6752 14.56598661722224
TISAT 1                 
1 36799U 10035E   23121.59561405  .00004612  00000+0  41792-3 0  9995
2 36799  98.1448 349.4071 0012612 123.5863 236.6563 14.95829037695265
M-CUBED & EXP-1 PRIME   
1 37855U 11061F   23121.49669736  .00018576  00000+0  61819-3 0  9990
2 37855 101.7041  57.1123 0124555 182.4121 177.6516 15.24060234629449
AEROCUBE 4.5A           
1 38767U 12048K   23121.56126944  .00008742  00000+0  59253-3 0  9999
2 38767  64.6641 189.0044 0131620 170.9537 189.3998 15.00162921198395
AEROCUBE 4.5B           
1 38768U 12048L   23121.45565274  .00009493  00000+0  55457-3 0  9997
2 38768  64.6628 135.2482 0111553 165.1874 195.2560 15.07242607198920
STRAND-1                
1 39090U 13009E   23121.51447191  .00000383  00000+0  14765-3 0  9994
2 39090  98.3912 316.1530 0009863  49.2356 310.9684 14.35564410533026
BRITE-AUSTRIA           
1 39091U 13009F   23121.57930253  .00000251  00000+0  10211-3 0  9993
2 39091  98.3939 315.4361 0011409  54.5293 305.6956 14.35462796533069
SOMP                    
1 39134U 13015E   23121.24606610  .00085577  00000+0  13163-2 0  9991
2 39134  64.8505  86.4270 0016002 258.6009 101.3337 15.53604074555677
BEESAT-3                
1 39135U 13015F   23121.44976874  .00034969  00000+0  88163-3 0  9998
2 39135  64.8583 133.4663 0021423 247.7130 112.1735 15.39472686554734
BEESAT-2                
1 39136U 13015G   23121.47426181  .00027927  00000+0  76461-3 0  9997
2 39136  64.8679 144.2286 0026523 282.4854  77.3315 15.36894443554492
NEE-01 PEGASO           
1 39151U 13018B   23121.82555557  .00002463  00000+0  31266-3 0  9998
2 39151  98.0033 231.9385 0014921 304.6381  55.3424 14.82548290540822
ESTCUBE 1               
1 39161U 13021C   23121.72731584  .00002552  00000+0  39414-3 0  9990
2 39161  97.8722 195.3106 0010274 117.3708 242.8552 14.74141919536332
POPACS 1                
1 39268U 13055D   23121.37835107  .00017185  00000+0  39456-3 0  9996
2 39268  80.9924 254.2507 0513918 311.3424  44.4613 14.64675704499583
POPACS 2                
1 39269U 13055E   23120.98384691  .00018312  00000+0  46902-3 0  9997
2 39269  81.0072 322.3365 0611743 128.1787 237.6162 14.41865351495776
POPACS 3                
1 39270U 13055F   23121.36705735  .00006999  00000+0  20676-3 0  9996
2 39270  81.0164   1.1955 0664787 237.7781 115.7303 14.27641870473887
ZACUBE-1 (TSHEPISOSAT)  
1 39417U 13066B   23121.86795447  .00003997  00000+0  46566-3 0  9996
2 39417  97.6813  85.1804 0057107  80.1431 280.6225 14.84608509510324
WNISAT-1                
1 39423U 13066H   23121.84123813  .00001004  00000+0  20508-3 0  9998
2 39423  97.7068 344.1475 0171775 221.9444 136.8485 14.54091198500701
TRITON-1                
1 39427U 13066M   23121.84443279  .00003539  00000+0  53794-3 0  9991
2 39427  97.8345  49.4651 0107684 327.0201  32.4319 14.70772905505737
DELFI-N3XT              
1 39428U 13066N   23121.35351803  .00006330  00000+0  91807-3 0  9998
2 39428  97.8326  47.8647 0111086 340.8247  18.8795 14.72199950505245
GOMX-1                  
1 39430U 13066Q   23121.77644811  .00002384  00000+0  41933-3 0  9991
2 39430  97.7848  15.6181 0147330 119.9328 241.6590 14.61599090502768
CUBEBUG-2 (LO-74)       
1 39440U 13066AA  23121.83393174  .00002654  00000+0  34831-3 0  9991
2 39440  97.7691  72.1219 0075770 176.7099 183.4627 14.79113192508505
NEE-02 KRYSAOR          
1 39441U 13066AB  23121.81724349  .00001834  00000+0  25324-3 0  9998
2 39441  97.7799  69.0072 0078011 193.1307 166.7875 14.77237396508165
FUNCUBE-1 (AO-73)       
1 39444U 13066AE  23121.47869015  .00004627  00000+0  51810-3 0  9995
2 39444  97.6678  87.3129 0055375  67.6963 293.0111 14.86217574508703
UWE-3                   
1 39446U 13066AG  23121.84034287  .00003283  00000+0  40707-3 0  9993
2 39446  97.7309  78.3224 0067217 129.5601 231.1577 14.81718382508154
BRITE-CA1 (TORONTO)     
1 40020U 14033L   23121.87298877  .00000921  00000+0  16118-3 0  9993
2 40020  97.8194 270.5349 0084718 328.7471  30.8713 14.67872775474467
DUCHIFAT-1              
1 40021U 14033M   23121.85280846  .00008415  00000+0  73004-3 0  9992
2 40021  98.0554  84.3559 0013562  71.5516 288.7178 14.97258472482257
NANOSATC-BR1            
1 40024U 14033Q   23121.82403285  .00007126  00000+0  65007-3 0  9998
2 40024  98.0247  75.8182 0013019  78.6337 281.6344 14.95351693482009
QB50P1                  
1 40025U 14033R   23121.51022216  .00004794  00000+0  46076-3 0  9999
2 40025  97.9930  67.4615 0013047  89.0096 271.2618 14.93459577481178
QB50P2                  
1 40032U 14033Y   23121.80868109  .00004047  00000+0  39778-3 0  9990
2 40032  97.9649  61.7935 0012616  86.0382 274.2279 14.92659240481579
PERSEUS-M2              
1 40037U 14033AD  23121.75042926  .00001782  00000+0  19865-3 0  9998
2 40037  97.9076  47.5241 0015346 110.8502 249.4359 14.88246124480944
PERSEUS-M1              
1 40039U 14033AF  23121.82801673  .00001633  00000+0  18414-3 0  9994
2 40039  97.8938  44.7102 0015255 110.0299 250.2562 14.87893040480839
POLYITAN-1              
1 40042U 14033AJ  23121.80436746  .00007008  00000+0  65849-3 0  9997
2 40042  98.0052  69.5199 0015243  80.9457 279.3487 14.94166977481628
TIGRISAT                
1 40043U 14033AK  23121.55693906  .00002399  00000+0  34394-3 0  9992
2 40043  97.6634 298.9612 0057428 203.7574 156.0984 14.76292817476534
AEROCUBE 6A             
1 40045U 14033AM  23121.73838103  .00004649  00000+0  62975-3 0  9990
2 40045  97.6583 308.7404 0055021 188.3047 171.7260 14.78352516477007
AEROCUBE 6B             
1 40046U 14033AN  23121.45752326  .00005200  00000+0  69182-3 0  9993
2 40046  97.6523 306.9176 0053696 186.4562 173.5965 14.79106053476741
UKUBE-1                 
1 40074U 14037F   23121.92295057  .00005300  00000+0  58512-3 0  9999
2 40074  98.3478  23.9878 0004446   1.7427 358.3768 14.87906578477375
BRITE-PL2 (HEWELIUSZ)   
1 40119U 14049B   23121.86408981  .00001986  00000+0  23088-3 0  9993
2 40119  97.8779 219.3797 0015296 279.8892  80.0596 14.86391453471374
FIREBIRD 4              
1 40378U 15003C   23121.40620755  .00137470  00000+0  15354-2 0  9990
2 40378  99.0780  67.1968 0051674  17.6773 342.6262 15.60639905457328
GRIFEX                  
1 40379U 15003D   23121.82372919  .00036484  00000+0  86872-3 0  9990
2 40379  99.0787  47.5435 0089286  71.4416 289.6497 15.37389645456257
CP10 (EXOCUBE)          
1 40380U 15003E   23120.81671764  .00020938  00000+0  61470-3 0  9994
2 40380  99.0851  36.7725 0103508 106.0205 255.2460 15.29952784455482
EXACTVIEW 9             
1 40936U 15052G   23121.22658671  .00002924  00000+0  30492-3 0  9998
2 40936   6.0037  63.9783 0010331 336.2325  23.7326 14.78371028410298
AEROCUBE 5C             
1 40965U 15058B   23121.53008076  .00002125  00000+0  24786-3 0  9990
2 40965  64.7726 184.0758 0161957  89.5868 272.3794 14.79015596195932
AEROCUBE 7              
1 40966U 15058C   23121.56743102  .00002488  00000+0  28252-3 0  9994
2 40966  64.7712 180.3551 0159495  89.2845 272.6533 14.79893626195981
ATHENOXAT 1             
1 41168U 15077C   23121.94061343  .00112386  00000+0  20140-2 0  9998
2 41168  14.9864 221.7388 0005983 103.1743 215.1285 15.48051697409114
GALASSIA                
1 41170U 15077E   23121.58341658  .00038163  00000+0  10313-2 0  9992
2 41170  14.9865 227.3219 0008522  94.8082 265.3215 15.35671429408876
VELOX-II                
1 41171U 15077F   23120.83464634  .00019700  00000+0  71957-3 0  9998
2 41171  14.9917 328.5146 0006140 243.2704 116.6990 15.25562718407958
HORYU-4                 
1 41340U 16012D   23121.38088604  .00007091  00000+0  45249-3 0  9991
2 41340  31.0027 124.2415 0011482 135.0898 225.0669 15.07255100395650
E-ST@R-II               
1 41459U 16025D   23121.80687309  .00026204  00000+0  81580-3 0  9995
2 41459  98.1905 318.4996 0111859 259.7581  99.1021 15.27272767385812
AAUSAT 4                
1 41460U 16025E   23121.53159645  .00087585  00000+0  15289-2 0  9995
2 41460  98.1680 329.2285 0072207 219.0906 196.6154 15.47453541386531
BEESAT-4                
1 41619U 16040W   23121.50915958  .00062115  00000+0  99235-3 0  9998
2 41619  97.1652 170.9269 0005516  72.4214 287.7642 15.52961077369618
